0 COSMOS 2251 DEB
1 37518U 93036BMX 13281.22270492  .00001839  00000-0  55812-3 0  1557
2 37518 074.0098 115.5383 0037410 251.5795 108.1383 14.42520790212563
0 COSMOS 2251 DEB
1 37518U 93036BMX 13283.85803871  .00001919  00000-0  58170-3 0  1561
2 37518 074.0103 110.6400 0037729 248.1913 111.5497 14.42532508212949
0 COSMOS 2251 DEB
1 37518U 93036BMX 13287.18683517  .00002120  00000-0  64146-3 0  1581
2 37518 074.0120 104.4518 0037445 234.7793 125.0188 14.42550183213421
0 COSMOS 2251 DEB
1 37518U 93036BMX 13289.82211152  .00002391  00000-0  72297-3 0  1593
2 37518 074.0082 099.5596 0034700 232.6085 127.2290 14.42566904213808
0 COSMOS 2251 DEB
1 37518U 93036BMX 13290.09950006  .00002563  00000-0  77473-3 0  1606
2 37518 074.0053 099.0493 0033987 239.4403 120.3767 14.42572143213841
0 COSMOS 2251 DEB
1 37518U 93036BMX 13291.13972180  .00002731  00000-0  82436-3 0  1612
2 37518 074.0045 097.1109 0034632 234.8580 124.9957 14.42580851213990
0 COSMOS 2251 DEB
1 37518U 93036BMX 13293.08145538  .00002899  00000-0  87432-3 0  1624
2 37518 074.0098 093.5012 0035149 231.3698 128.5029 14.42595649214270
0 COSMOS 2251 DEB
1 37518U 93036BMX 13293.77491682  .00003095  00000-0  93252-3 0  1631
2 37518 074.0064 092.2114 0035124 236.3042 123.5362 14.42604002214373
0 COSMOS 2251 DEB
1 37518U 93036BMX 13295.09249842  .00003288  00000-0  98846-3 0  1646
2 37518 074.0117 089.7589 0038423 221.8362 138.1256 14.42616807214569
